{
    "links": {
        "self": "http://www.neowsapp.com/rest/v1/neo/3559908?api_key=iIulBulltgU6a56xZRHN4H3l9WmuAYTsLGpBGhQ2"
    },
    "id": "3559908",
    "neo_reference_id": "3559908",
    "name": "(2011 EB74)",
    "designation": "2011 EB74",
    "nasa_jpl_url": "http://ssd.jpl.nasa.gov/sbdb.cgi?sstr=3559908",
    "absolute_magnitude_h": 26.9,
    "estimated_diameter": {
        "kilometers": {
            "estimated_diameter_min": 0.0110803882,
            "estimated_diameter_max": 0.0247765013
        },
        "meters": {
            "estimated_diameter_min": 11.0803882126,
            "estimated_diameter_max": 24.7765012606
        },
        "miles": {
            "estimated_diameter_min": 0.0068850319,
            "estimated_diameter_max": 0.0153953994
        },
        "feet": {
            "estimated_diameter_min": 36.3529808636,
            "estimated_diameter_max": 81.2877363957
        }
    },
    "is_potentially_hazardous_asteroid": false,
    "close_approach_data": [
        {
            "close_approach_date": "1956-03-15",
            "close_approach_date_full": "1956-Mar-15 01:11",
            "epoch_date_close_approach": -435451740000,
            "relative_velocity": {
                "kilometers_per_second": "6.5652575352",
                "kilometers_per_hour": "23634.9271265952",
                "miles_per_hour": "14685.8245804113"
            },
            "miss_distance": {
                "astronomical": "0.0551386228",
                "lunar": "21.4489242692",
                "kilometers": "8248620.525613436",
                "miles": "5125455.1241039768"
            },
            "orbiting_body": "Earth"
        },
        {
            "close_approach_date": "2011-03-16",
            "close_approach_date_full": "2011-Mar-16 17:09",
            "epoch_date_close_approach": 1300295340000,
            "relative_velocity": {
                "kilometers_per_second": "8.3492554507",
                "kilometers_per_hour": "30057.3196223429",
                "miles_per_hour": "18676.4495175608"
            },
            "miss_distance": {
                "astronomical": "0.0022513014",
                "lunar": "0.8757562446",
                "kilometers": "336789.894168018",
                "miles": "209271.5361859284"
            },
            "orbiting_body": "Moon"
        },
        {
            "close_approach_date": "2011-03-16",
            "close_approach_date_full": "2011-Mar-16 21:50",
            "epoch_date_close_approach": 1300312200000,
            "relative_velocity": {
                "kilometers_per_second": "7.6942854989",
                "kilometers_per_hour": "27699.4277958933",
                "miles_per_hour": "17211.3472323982"
            },
            "miss_distance": {
                "astronomical": "0.0021873998",
                "lunar": "0.8508985222",
                "kilometers": "327230.350918426",
                "miles": "203331.5114532388"
            },
            "orbiting_body": "Earth"
        },
        {
            "close_approach_date": "2012-03-01",
            "close_approach_date_full": "2012-Mar-01 09:17",
            "epoch_date_close_approach": 1330593420000,
            "relative_velocity": {
                "kilometers_per_second": "20.1675958404",
                "kilometers_per_hour": "72603.3450255185",
                "miles_per_hour": "45112.8951354395"
            },
            "miss_distance": {
                "astronomical": "0.4589922733",
                "lunar": "178.5479943137",
                "kilometers": "68664266.432137871",
                "miles": "42665996.7123737798"
            },
            "orbiting_body": "Earth"
        },
        {
            "close_approach_date": "2060-03-13",
            "close_approach_date_full": "2060-Mar-13 04:39",
            "epoch_date_close_approach": 2846378340000,
            "relative_velocity": {
                "kilometers_per_second": "10.4671958829",
                "kilometers_per_hour": "37681.9051783716",
                "miles_per_hour": "23414.0704704165"
            },
            "miss_distance": {
                "astronomical": "0.1219137682",
                "lunar": "47.4244558298",
                "kilometers": "18238040.046393734",
                "miles": "11332592.5855281692"
            },
            "orbiting_body": "Earth"
        }
    ],
    "orbital_data": {
        "orbit_id": "5",
        "orbit_determination_date": "2017-04-06 08:54:05",
        "first_observation_date": "2011-03-15",
        "last_observation_date": "2011-03-15",
        "data_arc_in_days": null,
        "observations_used": 17,
        "orbit_uncertainty": "9",
        "minimum_orbit_intersection": ".00085228",
        "jupiter_tisserand_invariant": "6.398",
        "epoch_osculation": "2455635.5",
        "eccentricity": ".1760925966966629",
        "semi_major_axis": ".9328123105715265",
        "inclination": "10.57223239256141",
        "ascending_node_longitude": "355.9954939769898",
        "orbital_period": "329.0711661929004",
        "perihelion_distance": ".7685509685723724",
        "perihelion_argument": "300.8509689908097",
        "aphelion_distance": "1.097073652570681",
        "perihelion_time": "2455731.295615653556",
        "mean_anomaly": "255.200718937908",
        "mean_motion": "1.093988282732038",
        "equinox": "J2000",
        "orbit_class": {
            "orbit_class_type": "ATE",
            "orbit_class_description": "Near-Earth asteroid orbits similar to that of 2062 Aten",
            "orbit_class_range": "a (semi-major axis) < 1.0 AU; q (perihelion) > 0.983 AU"
        }
    },
    "is_sentry_object": false
}